[{"OBJECT_NAME":"STARLINK-36325","OBJECT_ID":"2026-034M","EPOCH":"2026-03-16T23:50:48.630624","MEAN_MOTION":15.80949258,"ECCENTRICITY":0.00011988,"INCLINATION":53.1591,"RA_OF_ASC_NODE":174.6551,"ARG_OF_PERICENTER":76.767,"MEAN_ANOMALY":283.3487,"EPHEMERIS_TYPE":0,"CLASSIFICATION_TYPE":"U","NORAD_CAT_ID":67861,"ELEMENT_SET_NO":999,"REV_AT_EPOCH":509,"BSTAR":0.0012472556,"MEAN_MOTION_DOT":0.00253728,"MEAN_MOTION_DDOT":0},{"OBJECT_NAME":"STARLINK-36332","OBJECT_ID":"2026-034N","EPOCH":"2026-03-16T23:49:43.880736","MEAN_MOTION":15.80954058,"ECCENTRICITY":0.00012015,"INCLINATION":53.1593,"RA_OF_ASC_NODE":174.6499,"ARG_OF_PERICENTER":48.8998,"MEAN_ANOMALY":311.2129,"EPHEMERIS_TYPE":0,"CLASSIFICATION_TYPE":"U","NORAD_CAT_ID":67862,"ELEMENT_SET_NO":999,"REV_AT_EPOCH":509,"BSTAR":0.0013380264,"MEAN_MOTION_DOT":0.00272918,"MEAN_MOTION_DDOT":0},{"OBJECT_NAME":"STARLINK-36835","OBJECT_ID":"2026-034P","EPOCH":"2026-03-16T23:48:39.126528","MEAN_MOTION":15.80949793,"ECCENTRICITY":0.00014684,"INCLINATION":53.1598,"RA_OF_ASC_NODE":174.6444,"ARG_OF_PERICENTER":54.0648,"MEAN_ANOMALY":306.0511,"EPHEMERIS_TYPE":0,"CLASSIFICATION_TYPE":"U","NORAD_CAT_ID":67863,"ELEMENT_SET_NO":999,"REV_AT_EPOCH":509,"BSTAR":0.0013364693,"MEAN_MOTION_DOT":0.00272533,"MEAN_MOTION_DDOT":0},{"OBJECT_NAME":"STARLINK-36831","OBJECT_ID":"2026-034Q","EPOCH":"2026-03-17T05:51:42.742944","MEAN_MOTION":15.80974376,"ECCENTRICITY":0.00010981,"INCLINATION":53.1584,"RA_OF_ASC_NODE":173.3724,"ARG_OF_PERICENTER":80.5978,"MEAN_ANOMALY":279.5169,"EPHEMERIS_TYPE":0,"CLASSIFICATION_TYPE":"U","NORAD_CAT_ID":67864,"ELEMENT_SET_NO":999,"REV_AT_EPOCH":513,"BSTAR":0.0022905492,"MEAN_MOTION_DOT":0.00479664,"MEAN_MOTION_DDOT":0},{"OBJECT_NAME":"STARLINK-36738","OBJECT_ID":"2026-034R","EPOCH":"2026-03-16T23:46:31.146528","MEAN_MOTION":15.80975601,"ECCENTRICITY":0.00053082,"INCLINATION":53.1586,"RA_OF_ASC_NODE":174.6343,"ARG_OF_PERICENTER":72.8246,"MEAN_ANOMALY":287.3357,"EPHEMERIS_TYPE":0,"CLASSIFICATION_TYPE":"U","NORAD_CAT_ID":67865,"ELEMENT_SET_NO":999,"REV_AT_EPOCH":509,"BSTAR":0.0021860024,"MEAN_MOTION_DOT":0.00456639,"MEAN_MOTION_DDOT":0},{"OBJECT_NAME":"STARLINK-36780","OBJECT_ID":"2026-034S","EPOCH":"2026-03-16T23:45:25.819488","MEAN_MOTION":15.80939615,"ECCENTRICITY":0.00039097,"INCLINATION":53.1586,"RA_OF_ASC_NODE":174.6283,"ARG_OF_PERICENTER":78.457,"MEAN_ANOMALY":281.6892,"EPHEMERIS_TYPE":0,"CLASSIFICATION_TYPE":"U","NORAD_CAT_ID":67866,"ELEMENT_SET_NO":999,"REV_AT_EPOCH":509,"BSTAR":0.0015805341,"MEAN_MOTION_DOT":0.00324297,"MEAN_MOTION_DDOT":0},{"OBJECT_NAME":"STARLINK-36761","OBJECT_ID":"2026-034T","EPOCH":"2026-03-16T23:44:20.952960","MEAN_MOTION":15.8098811,"ECCENTRICITY":0.00041057,"INCLINATION":53.1593,"RA_OF_ASC_NODE":174.623,"ARG_OF_PERICENTER":67.8576,"MEAN_ANOMALY":292.2883,"EPHEMERIS_TYPE":0,"CLASSIFICATION_TYPE":"U","NORAD_CAT_ID":67867,"ELEMENT_SET_NO":999,"REV_AT_EPOCH":509,"BSTAR":0.0020007146,"MEAN_MOTION_DOT":0.00416052,"MEAN_MOTION_DDOT":0},{"OBJECT_NAME":"STARLINK-36762","OBJECT_ID":"2026-034U","EPOCH":"2026-03-16T23:43:15.523104","MEAN_MOTION":15.80993779,"ECCENTRICITY":0.00025127,"INCLINATION":53.1594,"RA_OF_ASC_NODE":174.6183,"ARG_OF_PERICENTER":78.0419,"MEAN_ANOMALY":282.0886,"EPHEMERIS_TYPE":0,"CLASSIFICATION_TYPE":"U","NORAD_CAT_ID":67868,"ELEMENT_SET_NO":999,"REV_AT_EPOCH":509,"BSTAR":0.0019849553,"MEAN_MOTION_DOT":0.00412658,"MEAN_MOTION_DDOT":0},{"OBJECT_NAME":"STARLINK-36779","OBJECT_ID":"2026-034V","EPOCH":"2026-03-16T23:42:11.683872","MEAN_MOTION":15.80941495,"ECCENTRICITY":0.00048782,"INCLINATION":53.1591,"RA_OF_ASC_NODE":174.6127,"ARG_OF_PERICENTER":73.4018,"MEAN_ANOMALY":286.754,"EPHEMERIS_TYPE":0,"CLASSIFICATION_TYPE":"U","NORAD_CAT_ID":67869,"ELEMENT_SET_NO":999,"REV_AT_EPOCH":509,"BSTAR":0.0017036672,"MEAN_MOTION_DOT":0.00350791,"MEAN_MOTION_DDOT":0},{"OBJECT_NAME":"STARLINK-36770","OBJECT_ID":"2026-034W","EPOCH":"2026-03-16T23:40:01.958592","MEAN_MOTION":15.80926133,"ECCENTRICITY":0.00046902,"INCLINATION":53.1588,"RA_OF_ASC_NODE":174.6023,"ARG_OF_PERICENTER":77.5743,"MEAN_ANOMALY":282.5804,"EPHEMERIS_TYPE":0,"CLASSIFICATION_TYPE":"U","NORAD_CAT_ID":67870,"ELEMENT_SET_NO":999,"REV_AT_EPOCH":509,"BSTAR":0.00148182,"MEAN_MOTION_DOT":0.00303108,"MEAN_MOTION_DDOT":0},{"OBJECT_NAME":"STARLINK-36769","OBJECT_ID":"2026-034X","EPOCH":"2026-03-16T23:41:05.877312","MEAN_MOTION":15.80994559,"ECCENTRICITY":0.00025358,"INCLINATION":53.1585,"RA_OF_ASC_NODE":174.6082,"ARG_OF_PERICENTER":61.935,"MEAN_ANOMALY":298.1929,"EPHEMERIS_TYPE":0,"CLASSIFICATION_TYPE":"U","NORAD_CAT_ID":67871,"ELEMENT_SET_NO":999,"REV_AT_EPOCH":509,"BSTAR":0.0018991572,"MEAN_MOTION_DOT":0.00393941,"MEAN_MOTION_DDOT":0},{"OBJECT_NAME":"STARLINK-36786","OBJECT_ID":"2026-034Y","EPOCH":"2026-03-16T16:03:44.869248","MEAN_MOTION":15.80920527,"ECCENTRICITY":0.00012452,"INCLINATION":53.159,"RA_OF_ASC_NODE":176.1817,"ARG_OF_PERICENTER":100.8286,"MEAN_ANOMALY":259.2877,"EPHEMERIS_TYPE":0,"CLASSIFICATION_TYPE":"U","NORAD_CAT_ID":67872,"ELEMENT_SET_NO":999,"REV_AT_EPOCH":504,"BSTAR":0.0010374256,"MEAN_MOTION_DOT":0.00209558,"MEAN_MOTION_DDOT":0},{"OBJECT_NAME":"STARLINK-36783","OBJECT_ID":"2026-034Z","EPOCH":"2026-03-16T23:37:51.409056","MEAN_MOTION":15.80988163,"ECCENTRICITY":0.00023068,"INCLINATION":53.1592,"RA_OF_ASC_NODE":174.5922,"ARG_OF_PERICENTER":45.6515,"MEAN_ANOMALY":314.4697,"EPHEMERIS_TYPE":0,"CLASSIFICATION_TYPE":"U","NORAD_CAT_ID":67873,"ELEMENT_SET_NO":999,"REV_AT_EPOCH":509,"BSTAR":0.0018217876,"MEAN_MOTION_DOT":0.00377,"MEAN_MOTION_DDOT":0},{"OBJECT_NAME":"STARLINK-36730","OBJECT_ID":"2026-034AA","EPOCH":"2026-03-16T23:36:46.247040","MEAN_MOTION":15.80943058,"ECCENTRICITY":0.00012003,"INCLINATION":53.1588,"RA_OF_ASC_NODE":174.5879,"ARG_OF_PERICENTER":69.9242,"MEAN_ANOMALY":290.191,"EPHEMERIS_TYPE":0,"CLASSIFICATION_TYPE":"U","NORAD_CAT_ID":67874,"ELEMENT_SET_NO":999,"REV_AT_EPOCH":509,"BSTAR":0.0012885236,"MEAN_MOTION_DOT":0.00262336,"MEAN_MOTION_DDOT":0},{"OBJECT_NAME":"STARLINK-36727","OBJECT_ID":"2026-034AB","EPOCH":"2026-03-17T05:39:49.966272","MEAN_MOTION":15.81020414,"ECCENTRICITY":0.00013559,"INCLINATION":53.1595,"RA_OF_ASC_NODE":173.3188,"ARG_OF_PERICENTER":58.0556,"MEAN_ANOMALY":302.0599,"EPHEMERIS_TYPE":0,"CLASSIFICATION_TYPE":"U","NORAD_CAT_ID":67875,"ELEMENT_SET_NO":999,"REV_AT_EPOCH":513,"BSTAR":0.0015575953,"MEAN_MOTION_DOT":0.00320578,"MEAN_MOTION_DDOT":0},{"OBJECT_NAME":"STARLINK-36743","OBJECT_ID":"2026-034AC","EPOCH":"2026-03-16T17:30:28.118304","MEAN_MOTION":15.80875092,"ECCENTRICITY":0.0002117,"INCLINATION":53.1596,"RA_OF_ASC_NODE":175.8467,"ARG_OF_PERICENTER":24.7881,"MEAN_ANOMALY":335.3243,"EPHEMERIS_TYPE":0,"CLASSIFICATION_TYPE":"U","NORAD_CAT_ID":67876,"ELEMENT_SET_NO":999,"REV_AT_EPOCH":505,"BSTAR":0.0014812209,"MEAN_MOTION_DOT":0.00302137,"MEAN_MOTION_DDOT":0}]
