STARLINK-36325          
1 67861U 26034M   26075.99361841  .00253728  00000+0  12473-2 0  9999
2 67861  53.1591 174.6551 0001198  76.7670 283.3487 15.80949258  5095
STARLINK-36332          
1 67862U 26034N   26075.99286899  .00272918  00000+0  13380-2 0  9999
2 67862  53.1593 174.6499 0001201  48.8998 311.2129 15.80954058  5095
STARLINK-36835          
1 67863U 26034P   26075.99211952  .00272533  00000+0  13365-2 0  9994
2 67863  53.1598 174.6444 0001468  54.0648 306.0511 15.80949793  5094
STARLINK-36831          
1 67864U 26034Q   26076.24424471  .00479664  00000+0  22905-2 0  9990
2 67864  53.1584 173.3724 0001098  80.5978 279.5169 15.80974376  5139
STARLINK-36738          
1 67865U 26034R   26075.99063827  .00456639  00000+0  21860-2 0  9992
2 67865  53.1586 174.6343 0005308  72.8246 287.3357 15.80975601  5096
STARLINK-36780          
1 67866U 26034S   26075.98988217  .00324297  00000+0  15805-2 0  9997
2 67866  53.1586 174.6283 0003909  78.4570 281.6892 15.80939615  5093
STARLINK-36761          
1 67867U 26034T   26075.98913140  .00416052  00000+0  20007-2 0  9992
2 67867  53.1593 174.6230 0004105  67.8576 292.2883 15.80988110  5093
STARLINK-36762          
1 67868U 26034U   26075.98837411  .00412658  00000+0  19850-2 0  9991
2 67868  53.1594 174.6183 0002512  78.0419 282.0886 15.80993779  5099
STARLINK-36779          
1 67869U 26034V   26075.98763523  .00350791  00000+0  17037-2 0  9998
2 67869  53.1591 174.6127 0004878  73.4018 286.7540 15.80941495  5092
STARLINK-36770          
1 67870U 26034W   26075.98613378  .00303108  00000+0  14818-2 0  9996
2 67870  53.1588 174.6023 0004690  77.5743 282.5804 15.80926133  5096
STARLINK-36769          
1 67871U 26034X   26075.98687358  .00393941  00000+0  18992-2 0  9997
2 67871  53.1585 174.6082 0002535  61.9350 298.1929 15.80994559  5094
STARLINK-36786          
1 67872U 26034Y   26075.66926932  .00209558  00000+0  10374-2 0  9993
2 67872  53.1590 176.1817 0001245 100.8286 259.2877 15.80920527  5041
STARLINK-36783          
1 67873U 26034Z   26075.98462279  .00377000  00000+0  18218-2 0  9991
2 67873  53.1592 174.5922 0002306  45.6515 314.4697 15.80988163  5092
STARLINK-36730          
1 67874U 26034AA  26075.98386860  .00262336  00000+0  12885-2 0  9992
2 67874  53.1588 174.5879 0001200  69.9242 290.1910 15.80943058  5099
STARLINK-36727          
1 67875U 26034AB  26076.23599498  .00320578  00000+0  15576-2 0  9998
2 67875  53.1595 173.3188 0001355  58.0556 302.0599 15.81020414  5130
STARLINK-36743          
1 67876U 26034AC  26075.72949211  .00302137  00000+0  14812-2 0  9997
2 67876  53.1596 175.8467 0002117  24.7881 335.3243 15.80875092  5052
